start=new Date('2022-05-08T00:00:00.000Z').valueOf();
sats=[{"TIME_SYSTEM":"UTC","EPOCH":"2022-05-07T22:00:00.999936","PERIOD":"95.438","MEAN_MOTION_DOT":"0.00030961","ECCENTRICITY":"0.00017870","MEAN_ANOMALY":"13.9001","COUNTRY_CODE":"US","FILE":"3434489","OBJECT_ID":"2021-115AE","CENTER_NAME":"EARTH","BSTAR":"0.00195530000000","EPHEMERIS_TYPE":"0","SEMIMAJOR_AXIS":"6917.905","TLE_LINE1":"1 49752U 21115AE  22127.91667824  .00030961  00000-0  19553-2 0  9998","ARG_OF_PERICENTER":"57.0673","OBJECT_TYPE":"PAYLOAD","RCS_SIZE":"LARGE","REV_AT_EPOCH":"2516","PERIAPSIS":"538.534","LAUNCH_DATE":"2021-12-02","MEAN_MOTION":"15.08831917","APOAPSIS":"541.006","ELEMENT_SET_NO":"999","NORAD_CAT_ID":"49752","REF_FRAME":"TEME","CLASSIFICATION_TYPE":"U","GP_ID":"202941495","INCLINATION":"53.2176","RA_OF_ASC_NODE":"311.9353","SITE":"AFETR","DECAY_DATE":null,"OBJECT_NAME":"STARLINK-3209","MEAN_MOTION_DDOT":"0.0000000000000","MEAN_ELEMENT_THEORY":"SGP4","TLE_LINE2":"2 49752  53.2176 311.9353 0001787  57.0673  13.9001 15.08831917 25160"},{"INCLINATION":"53.2213","RA_OF_ASC_NODE":"321.9208","SITE":"AFETR","OBJECT_NAME":"STARLINK-3200","DECAY_DATE":null,"MEAN_MOTION_DDOT":"0.0000000000000","MEAN_ELEMENT_THEORY":"SGP4","TLE_LINE2":"2 49753  53.2213 321.9208 0002110  40.0225 135.9674 15.08846539 25021","PERIAPSIS":"538.266","LAUNCH_DATE":"2021-12-02","MEAN_MOTION":"15.08846539","APOAPSIS":"541.185","ELEMENT_SET_NO":"999","NORAD_CAT_ID":"49753","CLASSIFICATION_TYPE":"U","REF_FRAME":"TEME","GP_ID":"202941017","BSTAR":"-0.00073579000000","EPHEMERIS_TYPE":"0","SEMIMAJOR_AXIS":"6917.860","TLE_LINE1":"1 49753U 21115AF  22127.91667824 -.00011982  00000-0 -73579-3 0  9992","ARG_OF_PERICENTER":"40.0225","OBJECT_TYPE":"PAYLOAD","RCS_SIZE":"LARGE","REV_AT_EPOCH":"2502","TIME_SYSTEM":"UTC","EPOCH":"2022-05-07T22:00:00.999936","PERIOD":"95.437","MEAN_MOTION_DOT":"-0.00011982","ECCENTRICITY":"0.00021100","MEAN_ANOMALY":"135.9674","COUNTRY_CODE":"US","FILE":"3434490","OBJECT_ID":"2021-115AF","CENTER_NAME":"EARTH"},{"APOAPSIS":"545.744","LAUNCH_DATE":"2021-12-02","MEAN_MOTION":"15.08815440","PERIAPSIS":"533.897","GP_ID":"202941049","CLASSIFICATION_TYPE":"U","REF_FRAME":"TEME","ELEMENT_SET_NO":"999","NORAD_CAT_ID":"49754","RA_OF_ASC_NODE":"311.9370","INCLINATION":"53.2100","MEAN_MOTION_DDOT":"0.0000000000000","MEAN_ELEMENT_THEORY":"SGP4","TLE_LINE2":"2 49754  53.2100 311.9370 0008563 298.6787 167.0940 15.08815440 25162","DECAY_DATE":null,"OBJECT_NAME":"STARLINK-3193","SITE":"AFETR","PERIOD":"95.439","EPOCH":"2022-05-07T22:00:00.999936","TIME_SYSTEM":"UTC","FILE":"3434493","OBJECT_ID":"2021-115AG","CENTER_NAME":"EARTH","MEAN_ANOMALY":"167.0940","ECCENTRICITY":"0.00085630","COUNTRY_CODE":"US","MEAN_MOTION_DOT":"0.00043989","SEMIMAJOR_AXIS":"6917.955","TLE_LINE1":"1 49754U 21115AG  22127.91667824  .00043989  00000-0  27647-2 0  9997","BSTAR":"0.00276470000000","EPHEMERIS_TYPE":"0","RCS_SIZE":"LARGE","REV_AT_EPOCH":"2516","OBJECT_TYPE":"PAYLOAD","ARG_OF_PERICENTER":"298.6787"},{"SEMIMAJOR_AXIS":"6917.875","TLE_LINE1":"1 49755U 21115AH  22127.58334491 -.00007627  00000-0 -46152-3 0  9996","BSTAR":"-0.00046152000000","EPHEMERIS_TYPE":"0","RCS_SIZE":"LARGE","REV_AT_EPOCH":"360","OBJECT_TYPE":"PAYLOAD","ARG_OF_PERICENTER":"30.8293","PERIOD":"95.437","EPOCH":"2022-05-07T14:00:01.000224","TIME_SYSTEM":"UTC","FILE":"3433971","OBJECT_ID":"2021-115AH","CENTER_NAME":"EARTH","ECCENTRICITY":"0.00026990","MEAN_ANOMALY":"93.5250","COUNTRY_CODE":"US","MEAN_MOTION_DOT":"-0.00007627","RA_OF_ASC_NODE":"323.4127","INCLINATION":"53.2175","MEAN_MOTION_DDOT":"0.0000000000000","MEAN_ELEMENT_THEORY":"SGP4","TLE_LINE2":"2 49755  53.2175 323.4127 0002699  30.8293  93.5250 15.08841636  3603","OBJECT_NAME":"STARLINK-3210","DECAY_DATE":null,"SITE":"AFETR","APOAPSIS":"541.608","LAUNCH_DATE":"2021-12-02","MEAN_MOTION":"15.08841636","PERIAPSIS":"537.873","GP_ID":"202927594","CLASSIFICATION_TYPE":"U","REF_FRAME":"TEME","ELEMENT_SET_NO":"999","NORAD_CAT_ID":"49755"},{"ARG_OF_PERICENTER":"71.0486","OBJECT_TYPE":"PAYLOAD","RCS_SIZE":"LARGE","REV_AT_EPOCH":"361","BSTAR":"-0.00087567000000","EPHEMERIS_TYPE":"0","SEMIMAJOR_AXIS":"6917.814","TLE_LINE1":"1 49756U 21115AJ  22127.58334491 -.00014206  00000-0 -87567-3 0  9993","MEAN_MOTION_DOT":"-0.00014206","ECCENTRICITY":"0.00014570","MEAN_ANOMALY":"288.3294","COUNTRY_CODE":"US","OBJECT_ID":"2021-115AJ","FILE":"3433971","CENTER_NAME":"EARTH","TIME_SYSTEM":"UTC","EPOCH":"2022-05-07T14:00:01.000224","PERIOD":"95.436","SITE":"AFETR","DECAY_DATE":null,"OBJECT_NAME":"STARLINK-3207","MEAN_MOTION_DDOT":"0.0000000000000","MEAN_ELEMENT_THEORY":"SGP4","TLE_LINE2":"2 49756  53.2156 313.4298 0001457  71.0486 288.3294 15.08861800  3611","INCLINATION":"53.2156","RA_OF_ASC_NODE":"313.4298","ELEMENT_SET_NO":"999","NORAD_CAT_ID":"49756","CLASSIFICATION_TYPE":"U","REF_FRAME":"TEME","GP_ID":"202928342","PERIAPSIS":"538.671","LAUNCH_DATE":"2021-12-02","MEAN_MOTION":"15.08861800","APOAPSIS":"540.687"},{"EPOCH":"2022-05-07T14:00:01.000224","TIME_SYSTEM":"UTC","PERIOD":"95.437","MEAN_ANOMALY":"339.2767","ECCENTRICITY":"0.00014640","COUNTRY_CODE":"US","MEAN_MOTION_DOT":"-0.00003972","OBJECT_ID":"2021-115AK","FILE":"3433971","CENTER_NAME":"EARTH","SEMIMAJOR_AXIS":"6917.865","TLE_LINE1":"1 49757U 21115AK  22127.58334491 -.00003972  00000-0 -23159-3 0  9999","BSTAR":"-0.00023159000000","EPHEMERIS_TYPE":"0","OBJECT_TYPE":"PAYLOAD","ARG_OF_PERICENTER":"60.0793","RCS_SIZE":"LARGE","REV_AT_EPOCH":"361","PERIAPSIS":"538.717","APOAPSIS":"540.742","LAUNCH_DATE":"2021-12-02","MEAN_MOTION":"15.08845167","ELEMENT_SET_NO":"999","NORAD_CAT_ID":"49757","GP_ID":"202927092","CLASSIFICATION_TYPE":"U","REF_FRAME":"TEME","RA_OF_ASC_NODE":"313.4340","INCLINATION":"53.2151","SITE":"AFETR","MEAN_MOTION_DDOT":"0.0000000000000","MEAN_ELEMENT_THEORY":"SGP4","TLE_LINE2":"2 49757  53.2151 313.4340 0001464  60.0793 339.2767 15.08845167  3611","OBJECT_NAME":"STARLINK-3197","DECAY_DATE":null},{"RA_OF_ASC_NODE":"311.9330","INCLINATION":"53.2168","TLE_LINE2":"2 49758  53.2168 311.9330 0001589  52.8077 278.1860 15.08823820 25165","MEAN_MOTION_DDOT":"0.0000000000000","MEAN_ELEMENT_THEORY":"SGP4","OBJECT_NAME":"STARLINK-3194","DECAY_DATE":null,"SITE":"AFETR","APOAPSIS":"540.894","MEAN_MOTION":"15.08823820","LAUNCH_DATE":"2021-12-02","PERIAPSIS":"538.696","GP_ID":"202941003","CLASSIFICATION_TYPE":"U","REF_FRAME":"TEME","NORAD_CAT_ID":"49758","ELEMENT_SET_NO":"999","TLE_LINE1":"1 49758U 21115AL  22127.91667824  .00045961  00000-0  28884-2 0  9997","SEMIMAJOR_AXIS":"6917.930","EPHEMERIS_TYPE":"0","BSTAR":"0.00288840000000","REV_AT_EPOCH":"2516","RCS_SIZE":"LARGE","OBJECT_TYPE":"PAYLOAD","ARG_OF_PERICENTER":"52.8077","PERIOD":"95.439","TIME_SYSTEM":"UTC","EPOCH":"2022-05-07T22:00:00.999936","CENTER_NAME":"EARTH","FILE":"3434489","OBJECT_ID":"2021-115AL","COUNTRY_CODE":"US","MEAN_ANOMALY":"278.1860","ECCENTRICITY":"0.00015890","MEAN_MOTION_DOT":"0.00045961"},{"ARG_OF_PERICENTER":"54.3739","OBJECT_TYPE":"PAYLOAD","REV_AT_EPOCH":"361","RCS_SIZE":"LARGE","EPHEMERIS_TYPE":"0","BSTAR":"-0.00016866000000","TLE_LINE1":"1 49759U 21115AM  22127.58334491 -.00002972  00000-0 -16866-3 0  9997","SEMIMAJOR_AXIS":"6917.850","MEAN_MOTION_DOT":"-0.00002972","COUNTRY_CODE":"US","ECCENTRICITY":"0.00015390","MEAN_ANOMALY":"325.0195","CENTER_NAME":"EARTH","OBJECT_ID":"2021-115AM","FILE":"3433971","EPOCH":"2022-05-07T14:00:01.000224","TIME_SYSTEM":"UTC","PERIOD":"95.437","SITE":"AFETR","OBJECT_NAME":"STARLINK-3204","DECAY_DATE":null,"TLE_LINE2":"2 49759  53.2168 313.4286 0001539  54.3739 325.0195 15.08850097  3615","MEAN_MOTION_DDOT":"0.0000000000000","MEAN_ELEMENT_THEORY":"SGP4","INCLINATION":"53.2168","RA_OF_ASC_NODE":"313.4286","NORAD_CAT_ID":"49759","ELEMENT_SET_NO":"999","CLASSIFICATION_TYPE":"U","REF_FRAME":"TEME","GP_ID":"202928094","PERIAPSIS":"538.650","MEAN_MOTION":"15.08850097","LAUNCH_DATE":"2021-12-02","APOAPSIS":"540.779"},{"REV_AT_EPOCH":"360","RCS_SIZE":"LARGE","ARG_OF_PERICENTER":"54.0537","OBJECT_TYPE":"PAYLOAD","EPHEMERIS_TYPE":"0","BSTAR":"-0.00070069000000","TLE_LINE1":"1 49760U 21115AN  22127.58334491 -.00011426  00000-0 -70069-3 0  9998","SEMIMAJOR_AXIS":"6917.846","CENTER_NAME":"EARTH","OBJECT_ID":"2021-115AN","FILE":"3433971","MEAN_MOTION_DOT":"-0.00011426","COUNTRY_CODE":"US","MEAN_ANOMALY":"225.3653","ECCENTRICITY":"0.00016480","PERIOD":"95.437","TIME_SYSTEM":"UTC","EPOCH":"2022-05-07T14:00:01.000224","DECAY_DATE":null,"OBJECT_NAME":"STARLINK-3199","TLE_LINE2":"2 49760  53.2205 313.3997 0001648  54.0537 225.3653 15.08851149  3600","MEAN_ELEMENT_THEORY":"SGP4","MEAN_MOTION_DDOT":"0.0000000000000","SITE":"AFETR","INCLINATION":"53.2205","RA_OF_ASC_NODE":"313.3997","REF_FRAME":"TEME","CLASSIFICATION_TYPE":"U","GP_ID":"202927843","NORAD_CAT_ID":"49760","ELEMENT_SET_NO":"999","MEAN_MOTION":"15.08851149","LAUNCH_DATE":"2021-12-02","APOAPSIS":"540.851","PERIAPSIS":"538.571"},{"CLASSIFICATION_TYPE":"U","REF_FRAME":"TEME","GP_ID":"202941553","NORAD_CAT_ID":"49761","ELEMENT_SET_NO":"999","MEAN_MOTION":"15.08828963","LAUNCH_DATE":"2021-12-02","APOAPSIS":"540.896","PERIAPSIS":"538.662","DECAY_DATE":null,"OBJECT_NAME":"STARLINK-3203","TLE_LINE2":"2 49761  53.2177 311.9364 0001615  54.1219 296.8735 15.08828963 25160","MEAN_MOTION_DDOT":"0.0000000000000","MEAN_ELEMENT_THEORY":"SGP4","SITE":"AFETR","INCLINATION":"53.2177","RA_OF_ASC_NODE":"311.9364","CENTER_NAME":"EARTH","FILE":"3434493","OBJECT_ID":"2021-115AP","MEAN_MOTION_DOT":"0.00027838","COUNTRY_CODE":"US","MEAN_ANOMALY":"296.8735","ECCENTRICITY":"0.00016150","PERIOD":"95.438","TIME_SYSTEM":"UTC","EPOCH":"2022-05-07T22:00:00.999936","REV_AT_EPOCH":"2516","RCS_SIZE":"LARGE","ARG_OF_PERICENTER":"54.1219","OBJECT_TYPE":"PAYLOAD","EPHEMERIS_TYPE":"0","BSTAR":"0.00176080000000","TLE_LINE1":"1 49761U 21115AP  22127.91667824  .00027838  00000-0  17608-2 0  9996","SEMIMAJOR_AXIS":"6917.914"}];
